[{"OBJECT_NAME":"ONEWEB-0547","OBJECT_ID":"2023-043D","EPOCH":"2026-03-09T22:26:42.796320","MEAN_MOTION":13.21824528,"ECCENTRICITY":0.00017322,"INCLINATION":87.9163,"RA_OF_ASC_NODE":263.7622,"ARG_OF_PERICENTER":92.3803,"MEAN_ANOMALY":267.7529,"EPHEMERIS_TYPE":0,"CLASSIFICATION_TYPE":"U","NORAD_CAT_ID":56049,"ELEMENT_SET_NO":999,"REV_AT_EPOCH":14511,"BSTAR":4.1187573e-5,"MEAN_MOTION_DOT":3.0e-7,"MEAN_MOTION_DDOT":0},{"OBJECT_NAME":"COURIER 1B","OBJECT_ID":"1960-013A","EPOCH":"2026-03-09T21:48:17.836128","MEAN_MOTION":13.46425856,"ECCENTRICITY":0.01648041,"INCLINATION":28.327,"RA_OF_ASC_NODE":283.4923,"ARG_OF_PERICENTER":105.7353,"MEAN_ANOMALY":256.1434,"EPHEMERIS_TYPE":0,"CLASSIFICATION_TYPE":"U","NORAD_CAT_ID":58,"ELEMENT_SET_NO":999,"REV_AT_EPOCH":22067,"BSTAR":7.8494593e-5,"MEAN_MOTION_DOT":1.36e-6,"MEAN_MOTION_DDOT":0}]
